[{"OBJECT_NAME":"SALSAT","OBJECT_ID":"2020-068K","EPOCH":"2026-03-09T22:26:21.804576","MEAN_MOTION":15.28191989,"ECCENTRICITY":0.00082652,"INCLINATION":97.8859,"RA_OF_ASC_NODE":66.0795,"ARG_OF_PERICENTER":295.8051,"MEAN_ANOMALY":64.2334,"EPHEMERIS_TYPE":0,"CLASSIFICATION_TYPE":"U","NORAD_CAT_ID":46495,"ELEMENT_SET_NO":999,"REV_AT_EPOCH":30019,"BSTAR":0.00040842582,"MEAN_MOTION_DOT":0.00011156,"MEAN_MOTION_DDOT":0},{"OBJECT_NAME":"STARLINK-32950","OBJECT_ID":"2025-075U","EPOCH":"2026-03-09T21:41:44.354976","MEAN_MOTION":15.27601366,"ECCENTRICITY":0.00017328,"INCLINATION":42.9998,"RA_OF_ASC_NODE":269.058,"ARG_OF_PERICENTER":259.9137,"MEAN_ANOMALY":100.152,"EPHEMERIS_TYPE":0,"CLASSIFICATION_TYPE":"U","NORAD_CAT_ID":63566,"ELEMENT_SET_NO":999,"REV_AT_EPOCH":5196,"BSTAR":0.001339917,"MEAN_MOTION_DOT":0.00036818,"MEAN_MOTION_DDOT":0}]
